QIANFAN-9               
1 60387U 24140J   25345.27722535  .00000150  00000+0  21285-3 0  9993
2 60387  88.9763 299.4877 0015220 196.1130 163.9539 13.50981246 67136
QIANFAN-10              
1 60388U 24140K   25345.28141443  .00000125  00000+0  17421-3 0  9997
2 60388  88.9773 298.8343 0014425 171.8974 188.2413 13.50981625 67267
QIANFAN-11              
1 60389U 24140L   25345.24443001  .00000142  00000+0  20095-3 0  9999
2 60389  88.9699 299.4265 0013281 195.0138 165.0621 13.50977967 66913
QIANFAN-12              
1 60390U 24140M   25345.26492410  .00000133  00000+0  18687-3 0  9995
2 60390  88.9742 299.4671 0011870 203.2363 156.8253 13.50978763 67048
QIANFAN-13              
1 60391U 24140N   25345.23612129  .00000156  00000+0  22250-3 0  9990
2 60391  88.9754 299.5698 0011620 206.1505 153.9061 13.50979327 67069
QIANFAN-14              
1 60392U 24140P   25345.26071581  .00000132  00000+0  18529-3 0  9993
2 60392  88.9733 299.4652 0015285 207.5876 152.4465 13.50978799 67078
QIANFAN-15              
1 60393U 24140Q   25345.26900325  .00000143  00000+0  20272-3 0  9991
2 60393  88.9756 299.4204 0011511 190.6833 169.4075 13.50977608 67062
QIANFAN-16              
1 60394U 24140R   25345.25677969  .00000121  00000+0  16826-3 0  9992
2 60394  88.9759 299.5418 0013144 211.1099 148.9275 13.50982879 66970
